{
    "links": {
        "self": "http://www.neowsapp.com/rest/v1/neo/3841625?api_key=iIulBulltgU6a56xZRHN4H3l9WmuAYTsLGpBGhQ2"
    },
    "id": "3841625",
    "neo_reference_id": "3841625",
    "name": "(2019 HQ3)",
    "designation": "2019 HQ3",
    "nasa_jpl_url": "http://ssd.jpl.nasa.gov/sbdb.cgi?sstr=3841625",
    "absolute_magnitude_h": 25.4,
    "estimated_diameter": {
        "kilometers": {
            "estimated_diameter_min": 0.022108281,
            "estimated_diameter_max": 0.0494356193
        },
        "meters": {
            "estimated_diameter_min": 22.1082810359,
            "estimated_diameter_max": 49.435619262
        },
        "miles": {
            "estimated_diameter_min": 0.0137374447,
            "estimated_diameter_max": 0.0307178602
        },
        "feet": {
            "estimated_diameter_min": 72.5337327539,
            "estimated_diameter_max": 162.1903570994
        }
    },
    "is_potentially_hazardous_asteroid": false,
    "close_approach_data": [
        {
            "close_approach_date": "2019-05-07",
            "close_approach_date_full": "2019-May-07 19:31",
            "epoch_date_close_approach": 1557257460000,
            "relative_velocity": {
                "kilometers_per_second": "12.695541838",
                "kilometers_per_hour": "45703.9506166214",
                "miles_per_hour": "28398.6575373112"
            },
            "miss_distance": {
                "astronomical": "0.0402506559",
                "lunar": "15.6575051451",
                "kilometers": "6021412.388742933",
                "miles": "3741532.1612131554"
            },
            "orbiting_body": "Earth"
        }
    ],
    "orbital_data": {
        "orbit_id": "3",
        "orbit_determination_date": "2019-05-06 07:14:20",
        "first_observation_date": "2019-04-25",
        "last_observation_date": "2019-05-06",
        "data_arc_in_days": 11,
        "observations_used": 41,
        "orbit_uncertainty": "8",
        "minimum_orbit_intersection": ".0394417",
        "jupiter_tisserand_invariant": "4.343",
        "epoch_osculation": "2458600.5",
        "eccentricity": ".451706186529566",
        "semi_major_axis": "1.535300113933377",
        "inclination": "10.26908129085693",
        "ascending_node_longitude": "214.9155969314472",
        "orbital_period": "694.8456613325532",
        "perihelion_distance": ".8417955542901231",
        "perihelion_argument": "76.30187178955498",
        "aphelion_distance": "2.228804673576631",
        "perihelion_time": "2458659.741393030468",
        "mean_anomaly": "329.3069948079284",
        "mean_motion": ".5181006661387269",
        "equinox": "J2000",
        "orbit_class": {
            "orbit_class_type": "APO",
            "orbit_class_description": "Near-Earth asteroid orbits which cross the Earth’s orbit similar to that of 1862 Apollo",
            "orbit_class_range": "a (semi-major axis) > 1.0 AU; q (perihelion) < 1.017 AU"
        }
    },
    "is_sentry_object": false
}